{
  "type": "FeatureCollection",
  "features": [
    {
      "type": "Feature",
      "properties": {
        "norad_id": 30040,
        "name": "FENGYUN 1C DEB",
        "group": "fengyun-1c-debris",
        "lat": 65.27443579970983,
        "lon": -21.275641607847625,
        "alt_km": 763.6026487160452,
        "timestamp": "2025-12-06T09:34:17.187083+00:00",
        "meta_object_name": "FENGYUN 1C DEB",
        "meta_object_id": "1999-025NR",
        "meta_epoch": "2025-12-05T23:20:21.357024",
        "meta_mean_motion": 14.3701569,
        "meta_eccentricity": 0.00326794,
        "meta_inclination": 98.2336,
        "meta_ra_of_asc_node": 356.6432,
        "meta_arg_of_pericenter": 333.7362,
        "meta_mean_anomaly": 48.2436,
        "meta_ephemeris_type": 0,
        "meta_classification_type": "U",
        "meta_norad_cat_id": 30040,
        "meta_element_set_no": 999,
        "meta_rev_at_epoch": 97831,
        "meta_bstar": 0.0028572115,
        "meta_mean_motion_dot": 8.492e-05,
        "meta_mean_motion_ddot": 0,
        "tle_line1": "1 30040U 99025NR  25339.97246941  .00008492  00000+0  28572-2 0  9994",
        "tle_line2": "2 30040  98.2336 356.6432 0032679 333.7362  48.2436 14.37015690978314"
      },
      "geometry": {
        "type": "Point",
        "coordinates": [
          -21.275641607847625,
          65.27443579970983
        ]
      }
    },
    {
      "type": "Feature",
      "properties": {
        "norad_id": 30041,
        "name": "FENGYUN 1C DEB",
        "group": "fengyun-1c-debris",
        "lat": -12.842719907180665,
        "lon": -95.64573616954527,
        "alt_km": 834.3203614045597,
        "timestamp": "2025-12-06T09:34:17.187094+00:00",
        "meta_object_name": "FENGYUN 1C DEB",
        "meta_object_id": "1999-025NS",
        "meta_epoch": "2025-12-05T19:38:30.312096",
        "meta_mean_motion": 14.13165672,
        "meta_eccentricity": 0.00345532,
        "meta_inclination": 99.4673,
        "meta_ra_of_asc_node": 85.9209,
        "meta_arg_of_pericenter": 236.4288,
        "meta_mean_anomaly": 245.6111,
        "meta_ephemeris_type": 0,
        "meta_classification_type": "U",
        "meta_norad_cat_id": 30041,
        "meta_element_set_no": 999,
        "meta_rev_at_epoch": 97189,
        "meta_bstar": 0.00087071847,
        "meta_mean_motion_dot": 1.589e-05,
        "meta_mean_motion_ddot": 0,
        "tle_line1": "1 30041U 99025NS  25339.81840639  .00001589  00000+0  87072-3 0  9993",
        "tle_line2": "2 30041  99.4673  85.9209 0034553 236.4288 245.6111 14.13165672971894"
      },
      "geometry": {
        "type": "Point",
        "coordinates": [
          -95.64573616954527,
          -12.842719907180665
        ]
      }
    },
    {
      "type": "Feature",
      "properties": {
        "norad_id": 30043,
        "name": "FENGYUN 1C DEB",
        "group": "fengyun-1c-debris",
        "lat": -29.5062476298988,
        "lon": 83.39962679450592,
        "alt_km": 1023.5125995696071,
        "timestamp": "2025-12-06T09:34:17.187104+00:00",
        "meta_object_name": "FENGYUN 1C DEB",
        "meta_object_id": "1999-025NU",
        "meta_epoch": "2025-12-05T18:32:10.571712",
        "meta_mean_motion": 14.23492908,
        "meta_eccentricity": 0.02838152,
        "meta_inclination": 98.628,
        "meta_ra_of_asc_node": 77.8552,
        "meta_arg_of_pericenter": 151.1922,
        "meta_mean_anomaly": 210.5268,
        "meta_ephemeris_type": 0,
        "meta_classification_type": "U",
        "meta_norad_cat_id": 30043,
        "meta_element_set_no": 999,
        "meta_rev_at_epoch": 97246,
        "meta_bstar": 0.0022882112,
        "meta_mean_motion_dot": 7.85e-05,
        "meta_mean_motion_ddot": 0,
        "tle_line1": "1 30043U 99025NU  25339.77234458  .00007850  00000+0  22882-2 0  9990",
        "tle_line2": "2 30043  98.6280  77.8552 0283815 151.1922 210.5268 14.23492908972461"
      },
      "geometry": {
        "type": "Point",
        "coordinates": [
          83.39962679450592,
          -29.5062476298988
        ]
      }
    },
    {
      "type": "Feature",
      "properties": {
        "norad_id": 30044,
        "name": "FENGYUN 1C DEB",
        "group": "fengyun-1c-debris",
        "lat": -41.60379250987851,
        "lon": -91.78670873414427,
        "alt_km": 766.9708785271287,
        "timestamp": "2025-12-06T09:34:17.187114+00:00",
        "meta_object_name": "FENGYUN 1C DEB",
        "meta_object_id": "1999-025NV",
        "meta_epoch": "2025-12-05T17:12:44.299296",
        "meta_mean_motion": 14.50512105,
        "meta_eccentricity": 0.00790744,
        "meta_inclination": 98.2118,
        "meta_ra_of_asc_node": 260.1812,
        "meta_arg_of_pericenter": 189.2032,
        "meta_mean_anomaly": 170.7718,
        "meta_ephemeris_type": 0,
        "meta_classification_type": "U",
        "meta_norad_cat_id": 30044,
        "meta_element_set_no": 999,
        "meta_rev_at_epoch": 97937,
        "meta_bstar": 0.0032339418,
        "meta_mean_motion_dot": 0.00013156,
        "meta_mean_motion_ddot": 0,
        "tle_line1": "1 30044U 99025NV  25339.71717939  .00013156  00000+0  32339-2 0  9999",
        "tle_line2": "2 30044  98.2118 260.1812 0079074 189.2032 170.7718 14.50512105979374"
      },
      "geometry": {
        "type": "Point",
        "coordinates": [
          -91.78670873414427,
          -41.60379250987851
        ]
      }
    },
    {
      "type": "Feature",
      "properties": {
        "norad_id": 30045,
        "name": "FENGYUN 1C DEB",
        "group": "fengyun-1c-debris",
        "lat": 59.01746464108268,
        "lon": 0.09448463215088854,
        "alt_km": 791.4028797816991,
        "timestamp": "2025-12-06T09:34:17.187124+00:00",
        "meta_object_name": "FENGYUN 1C DEB",
        "meta_object_id": "1999-025NW",
        "meta_epoch": "2025-12-05T13:43:50.467296",
        "meta_mean_motion": 14.21510455,
        "meta_eccentricity": 0.00952514,
        "meta_inclination": 99.179,
        "meta_ra_of_asc_node": 14.857,
        "meta_arg_of_pericenter": 133.5649,
        "meta_mean_anomaly": 19.5542,
        "meta_ephemeris_type": 0,
        "meta_classification_type": "U",
        "meta_norad_cat_id": 30045,
        "meta_element_set_no": 999,
        "meta_rev_at_epoch": 96586,
        "meta_bstar": 0.0036294742,
        "meta_mean_motion_dot": 8.281e-05,
        "meta_mean_motion_ddot": 0,
        "tle_line1": "1 30045U 99025NW  25339.57211189  .00008281  00000+0  36295-2 0  9998",
        "tle_line2": "2 30045  99.1790  14.8570 0095251 133.5649  19.5542 14.21510455965865"
      },
      "geometry": {
        "type": "Point",
        "coordinates": [
          0.09448463215088854,
          59.01746464108268
        ]
      }
    },
    {
      "type": "Feature",
      "properties": {
        "norad_id": 30047,
        "name": "FENGYUN 1C DEB",
        "group": "fengyun-1c-debris",
        "lat": -74.18215284341547,
        "lon": -81.22113533672554,
        "alt_km": 907.0097905071971,
        "timestamp": "2025-12-06T09:34:17.187135+00:00",
        "meta_object_name": "FENGYUN 1C DEB",
        "meta_object_id": "1999-025NY",
        "meta_epoch": "2025-12-05T22:43:26.678784",
        "meta_mean_motion": 13.94336886,
        "meta_eccentricity": 0.01256379,
        "meta_inclination": 99.9193,
        "meta_ra_of_asc_node": 136.4382,
        "meta_arg_of_pericenter": 340.9031,
        "meta_mean_anomaly": 170.5831,
        "meta_ephemeris_type": 0,
        "meta_classification_type": "U",
        "meta_norad_cat_id": 30047,
        "meta_element_set_no": 999,
        "meta_rev_at_epoch": 95821,
        "meta_bstar": 0.00088508285,
        "meta_mean_motion_dot": 1.206e-05,
        "meta_mean_motion_ddot": 0,
        "tle_line1": "1 30047U 99025NY  25339.94683656  .00001206  00000+0  88508-3 0  9998",
        "tle_line2": "2 30047  99.9193 136.4382 0125637 340.9031 170.5831 13.94336886958218"
      },
      "geometry": {
        "type": "Point",
        "coordinates": [
          -81.22113533672554,
          -74.18215284341547
        ]
      }
    },
    {
      "type": "Feature",
      "properties": {
        "norad_id": 30048,
        "name": "FENGYUN 1C DEB",
        "group": "fengyun-1c-debris",
        "lat": -41.02210696250795,
        "lon": 19.12993772060488,
        "alt_km": 865.8822831444304,
        "timestamp": "2025-12-06T09:34:17.187145+00:00",
        "meta_object_name": "FENGYUN 1C DEB",
        "meta_object_id": "1999-025NZ",
        "meta_epoch": "2025-12-05T03:40:18.922656",
        "meta_mean_motion": 13.79886115,
        "meta_eccentricity": 0.01863106,
        "meta_inclination": 98.667,
        "meta_ra_of_asc_node": 205.6132,
        "meta_arg_of_pericenter": 265.5097,
        "meta_mean_anomaly": 252.0448,
        "meta_ephemeris_type": 0,
        "meta_classification_type": "U",
        "meta_norad_cat_id": 30048,
        "meta_element_set_no": 999,
        "meta_rev_at_epoch": 95021,
        "meta_bstar": 0.00049504911,
        "meta_mean_motion_dot": 5.44e-06,
        "meta_mean_motion_ddot": 0,
        "tle_line1": "1 30048U 99025NZ  25339.15299679  .00000544  00000+0  49505-3 0  9998",
        "tle_line2": "2 30048  98.6670 205.6132 0186310 265.5097 252.0448 13.79886115950216"
      },
      "geometry": {
        "type": "Point",
        "coordinates": [
          19.12993772060488,
          -41.02210696250795
        ]
      }
    }
  ]
}